NORAD_CAT_ID,OBJECT_NAME,OBJECT_TYPE,EPOCH,MEAN_MOTION,ECCENTRICITY,INCLINATION,RA_OF_ASC_NODE,ARG_OF_PERICENTER,MEAN_ANOMALY,BSTAR,MEAN_MOTION_DOT,MEAN_MOTION_DDOT,TLE_LINE0,TLE_LINE1,TLE_LINE2,SEMIMAJOR_AXIS,PERIOD,APOGEE,PERIGEE,DECAYED
52634.0,STARLINK-3974,PAYLOAD,2024-05-31 16:17:37,15.08843198,0.000131,53.2182,293.6967,98.8445,261.2696,9.8333e-05,1.278e-05,0.0,0 STARLINK-3974,1 52634U 22052AN  24152.67890604  .00001278  00000-0  98333-4 0  9993,2 52634  53.2182 293.6967 0001310  98.8445 261.2696 15.08843198113697,6917.871,95.437,540.642,538.829,0.0
52634.0,STARLINK-3974,PAYLOAD,2024-06-01 12:57:39,15.08832949,0.0001374,53.2178,289.8305,97.9416,262.1732,-1.5434e-06,-3.12e-06,0.0,0 STARLINK-3974,1 52634U 22052AN  24153.54003668 -.00000312  00000-0 -15434-5 0  9998,2 52634  53.2178 289.8305 0001374  97.9416 262.1732 15.08832949113821,6917.902,95.438,540.717,538.816,0.0
52634.0,STARLINK-3974,PAYLOAD,2024-06-01 14:33:02,15.08834009,0.0001402,53.218,289.5332,97.5368,262.5783,8.3286e-06,-1.55e-06,0.0,0 STARLINK-3974,1 52634U 22052AN  24153.60627620 -.00000155  00000-0  83286-5 0  9999,2 52634  53.2180 289.5332 0001402  97.5368 262.5783 15.08834009113453,6917.899,95.438,540.734,538.794,0.0
52634.0,STARLINK-3974,PAYLOAD,2024-06-02 08:02:16,15.08832423,0.000123,53.2163,286.2606,84.1597,275.9535,-3.4964e-05,-8.44e-06,0.0,0 STARLINK-3974,1 52634U 22052AN  24154.33491687 -.00000844  00000-0 -34964-4 0  9996,2 52634  53.2163 286.2606 0001230  84.1597 275.9535 15.08832423113560,6917.904,95.438,540.619,538.918,0.0
52634.0,STARLINK-3974,PAYLOAD,2024-06-02 15:59:12,15.08836411,8.35e-05,53.216,284.7753,83.5047,276.604,3.5387e-05,2.76e-06,0.0,0 STARLINK-3974,1 52634U 22052AN  24154.66611450  .00000276  00000-0  35387-4 0  9991,2 52634  53.2160 284.7753 0000835  83.5047 276.6040 15.08836411113993,6917.891,95.438,540.334,539.179,0.0
52634.0,STARLINK-3974,PAYLOAD,2024-06-03 01:31:30,15.08841502,0.0001301,53.2164,282.9871,65.5124,294.6004,8.3077e-05,1.035e-05,0.0,0 STARLINK-3974,1 52634U 22052AN  24155.06355321  .00001035  00000-0  83077-4 0  9991,2 52634  53.2164 282.9871 0001301  65.5124 294.6004 15.08841502113675,6917.876,95.437,540.641,538.841,0.0
52634.0,STARLINK-3974,PAYLOAD,2024-06-03 17:25:22,15.08841774,0.0001408,53.2156,280.0177,79.3144,280.8006,0.00016131,2.28e-05,0.0,0 STARLINK-3974,1 52634U 22052AN  24155.72595587  .00002280  00000-0  16131-3 0  9993,2 52634  53.2156 280.0177 0001408  79.3144 280.8006 15.08841774114151,6917.875,95.437,540.714,538.766,0.0
52634.0,STARLINK-3974,PAYLOAD,2024-06-04 14:05:23,15.08842327,0.000136,53.2117,276.1506,80.206,279.9086,9.521e-05,1.228e-05,0.0,0 STARLINK-3974,1 52634U 22052AN  24156.58707641  .00001228  00000-0  95210-4 0  9991,2 52634  53.2117 276.1506 0001360  80.2060 279.9086 15.08842327113909,6917.873,95.437,540.679,538.797,0.0
52634.0,STARLINK-3974,PAYLOAD,2024-06-05 01:13:04,15.0884917,0.0001016,53.2171,274.0673,86.6506,273.4602,0.00019931,2.886e-05,0.0,0 STARLINK-3974,1 52634U 22052AN  24157.05075229  .00002886  00000-0  19931-3 0  9990,2 52634  53.2171 274.0673 0001016  86.6506 273.4602 15.08849170114350,6917.852,95.437,540.42,539.015,0.0
52634.0,STARLINK-3974,PAYLOAD,2024-06-05 12:20:47,15.08841987,0.0001608,53.2156,271.9875,86.773,273.3446,9.6975e-05,1.256e-05,0.0,0 STARLINK-3974,1 52634U 22052AN  24157.51443766  .00001256  00000-0  96975-4 0  9990,2 52634  53.2156 271.9875 0001608  86.7730 273.3446 15.08841987114421,6917.874,95.437,540.852,538.627,0.0
52634.0,STARLINK-3974,PAYLOAD,2024-06-05 13:56:10,15.08838795,9.7e-05,53.2143,271.6911,89.0352,271.0751,7.1086e-05,8.44e-06,0.0,0 STARLINK-3974,1 52634U 22052AN  24157.58067751  .00000844  00000-0  71086-4 0  9991,2 52634  53.2143 271.6911 0000970  89.0352 271.0751 15.08838795114058,6917.884,95.438,540.42,539.078,0.0
52634.0,STARLINK-3974,PAYLOAD,2024-06-06 13:46:57,15.08849476,0.0001053,53.2176,267.229,106.7174,253.3934,0.00035557,5.377e-05,0.0,0 STARLINK-3974,1 52634U 22052AN  24158.57427307  .00005377  00000-0  35557-3 0  9996,2 52634  53.2176 267.2290 0001053 106.7174 253.3934 15.08849476114208,6917.851,95.437,540.445,538.988,0.0
52634.0,STARLINK-3974,PAYLOAD,2024-06-06 16:57:42,15.08857344,0.0001351,53.2161,266.6344,102.912,257.2023,0.00026613,3.952e-05,0.0,0 STARLINK-3974,1 52634U 22052AN  24158.70674758  .00003952  00000-0  26613-3 0  9995,2 52634  53.2161 266.6344 0001351 102.9120 257.2023 15.08857344114604,6917.827,95.436,540.627,538.758,0.0
52634.0,STARLINK-3974,PAYLOAD,2024-06-07 16:48:30,15.0885187,0.000146,53.2161,262.1735,93.6688,266.4471,0.00025111,3.712e-05,0.0,0 STARLINK-3974,1 52634U 22052AN  24159.70035007  .00003712  00000-0  25111-3 0  9990,2 52634  53.2161 262.1735 0001460  93.6688 266.4471 15.08851870114758,6917.844,95.437,540.719,538.699,0.0
52634.0,STARLINK-3974,PAYLOAD,2024-06-08 13:28:30,15.08848177,0.0001279,53.2152,258.308,96.1192,263.9946,0.00010704,1.416e-05,0.0,0 STARLINK-3974,1 52634U 22052AN  24160.56146878  .00001416  00000-0  10704-3 0  9996,2 52634  53.2152 258.3080 0001279  96.1192 263.9946 15.08848177114883,6917.855,95.437,540.605,538.836,0.0
52634.0,STARLINK-3974,PAYLOAD,2024-06-09 11:43:56,15.08818483,0.0001444,53.2144,254.1436,68.33,291.7846,-0.00022586,-3.879e-05,0.0,0 STARLINK-3974,1 52634U 22052AN  24161.48884901 -.00003879  00000-0 -22586-3 0  9992,2 52634  53.2144 254.1436 0001444  68.3300 291.7846 15.08818483115021,6917.946,95.439,540.81,538.812,0.0
52634.0,STARLINK-3974,PAYLOAD,2024-06-09 22:51:38,15.08830941,0.0001474,53.2185,252.0681,88.8226,271.2935,-4.0689e-05,-9.35e-06,0.0,0 STARLINK-3974,1 52634U 22052AN  24161.95252676 -.00000935  00000-0 -40689-4 0  9997,2 52634  53.2185 252.0681 0001474  88.8226 271.2935 15.08830941114712,6917.908,95.438,540.793,538.753,0.0
52634.0,STARLINK-3974,PAYLOAD,2024-06-10 05:13:10,15.08834701,0.0001342,53.2164,250.8753,82.0435,278.0709,0.00017845,2.553e-05,0.0,0 STARLINK-3974,1 52634U 22052AN  24162.21748672  .00002553  00000-0  17845-3 0  9996,2 52634  53.2164 250.8753 0001342  82.0435 278.0709 15.08834701115136,6917.897,95.438,540.69,538.833,0.0
52634.0,STARLINK-3974,PAYLOAD,2024-06-10 13:10:06,15.08849957,0.0001323,53.2158,249.3908,87.2308,272.8836,0.00048555,7.45e-05,0.0,0 STARLINK-3974,1 52634U 22052AN  24162.54868255  .00007450  00000-0  48555-3 0  9995,2 52634  53.2158 249.3908 0001323  87.2308 272.8836 15.08849957115186,6917.85,95.437,540.63,538.8,0.0
52634.0,STARLINK-3974,PAYLOAD,2024-06-10 22:42:25,15.08847896,0.0001227,53.2148,247.605,87.4863,272.6269,0.00042817,6.534e-05,0.0,0 STARLINK-3974,1 52634U 22052AN  24162.94612422  .00006534  00000-0  42817-3 0  9999,2 52634  53.2148 247.6050 0001227  87.4863 272.6269 15.08847896114867,6917.856,95.437,540.57,538.872,0.0
52634.0,STARLINK-3974,PAYLOAD,2024-06-11 05:03:57,15.08848374,0.0001589,53.2162,246.4178,88.9342,271.1832,0.0004466,6.828e-05,0.0,0 STARLINK-3974,1 52634U 22052AN  24163.21108559  .00006828  00000-0  44660-3 0  9995,2 52634  53.2162 246.4178 0001589  88.9342 271.1832 15.08848374115289,6917.855,95.437,540.819,538.621,0.0
52634.0,STARLINK-3974,PAYLOAD,2024-06-11 13:00:53,15.08848427,0.0001575,53.2156,244.9295,83.805,276.3122,0.00022524,3.299e-05,0.0,0 STARLINK-3974,1 52634U 22052AN  24163.54228361  .00003299  00000-0  22524-3 0  9999,2 52634  53.2156 244.9295 0001575  83.8050 276.3122 15.08848427114951,6917.855,95.437,540.809,538.63,0.0
52634.0,STARLINK-3974,PAYLOAD,2024-06-11 22:33:12,15.08846094,0.0001175,53.2146,243.1454,84.0959,276.0167,0.00017173,2.447e-05,0.0,0 STARLINK-3974,1 52634U 22052AN  24163.93972293  .00002447  00000-0  17173-3 0  9990,2 52634  53.2146 243.1454 0001175  84.0959 276.0167 15.08846094115398,6917.862,95.437,540.54,538.914,0.0
52634.0,STARLINK-3974,PAYLOAD,2024-06-12 12:51:40,15.08833095,0.0001196,53.2137,240.4671,86.7503,273.3626,-0.0001262,-2.295e-05,0.0,0 STARLINK-3974,1 52634U 22052AN  24164.53588888 -.00002295  00000-0 -12620-3 0  9995,2 52634  53.2137 240.4671 0001196  86.7503 273.3626 15.08833095115483,6917.901,95.438,540.594,538.939,0.0
52634.0,STARLINK-3974,PAYLOAD,2024-06-13 11:07:04,15.08845174,0.0001273,53.2161,236.3057,93.0558,267.058,0.00020202,2.929e-05,0.0,0 STARLINK-3974,1 52634U 22052AN  24165.46324757  .00002929  00000-0  20202-3 0  9998,2 52634  53.2161 236.3057 0001273  93.0558 267.0580 15.08845174115625,6917.865,95.437,540.61,538.849,0.0
52634.0,STARLINK-3974,PAYLOAD,2024-06-14 10:57:51,15.08843023,0.0001272,53.2156,231.8458,91.398,268.7157,0.00017405,2.483e-05,0.0,0 STARLINK-3974,1 52634U 22052AN  24166.45684903  .00002483  00000-0  17405-3 0  9996,2 52634  53.2156 231.8458 0001272  91.3980 268.7157 15.08843023115396,6917.871,95.437,540.616,538.856,0.0
52634.0,STARLINK-3974,PAYLOAD,2024-06-15 13:59:24,15.08846813,0.0001326,53.2165,226.7886,98.155,261.9592,6.3815e-05,7.28e-06,0.0,0 STARLINK-3974,1 52634U 22052AN  24167.58292459  .00000728  00000-0  63815-4 0  9999,2 52634  53.2165 226.7886 0001326  98.1550 261.9592 15.08846813115569,6917.86,95.437,540.642,538.807,0.0
52634.0,STARLINK-3974,PAYLOAD,2024-06-16 13:50:11,15.08844633,0.0001232,53.2158,222.3273,81.9809,278.1322,9.4288e-05,1.213e-05,0.0,0 STARLINK-3974,1 52634U 22052AN  24168.57652415  .00001213  00000-0  94288-4 0  9999,2 52634  53.2158 222.3273 0001232  81.9809 278.1322 15.08844633115712,6917.866,95.437,540.584,538.879,0.0
52634.0,STARLINK-3974,PAYLOAD,2024-06-16 20:11:44,15.08839131,0.0001178,53.2149,221.1368,75.6085,284.5038,3.6734e-05,2.97e-06,0.0,0 STARLINK-3974,1 52634U 22052AN  24168.84148889  .00000297  00000-0  36734-4 0  9997,2 52634  53.2149 221.1368 0001178  75.6085 284.5038 15.08839131115755,6917.883,95.438,540.563,538.933,0.0
52634.0,STARLINK-3974,PAYLOAD,2024-06-17 20:02:31,15.08839439,0.0001233,53.2158,216.6802,101.2102,258.9029,-1.4958e-05,-5.26e-06,0.0,0 STARLINK-3974,1 52634U 22052AN  24169.83509173 -.00000526  00000-0 -14958-4 0  9995,2 52634  53.2158 216.6802 0001233 101.2102 258.9029 15.08839439116280,6917.882,95.438,540.6,538.894,0.0
